2025/11/26 22:55
EBCV 262255Z AUTO 20005KT 4100 BR BKN180/// 02/02 Q1023 GRN
