2025/11/21 05:25
EBCV 210525Z AUTO 05004KT 9999 OVC003/// 01/01 Q1018 YLO
