2025/11/25 02:55
EBCV 250255Z AUTO 29005KT 0300 FG OVC002/// 04/04 Q0999 RED
