2025/11/23 01:24
EBCV 230124Z AUTO 18011KT 5000 -SN BKN038/// BKN110/// M01/M05 Q1015 WHT
