2025/11/30 14:55
EBCV 301455Z AUTO 25007KT 9999 FEW035/// 06/01 Q1015 BLU
