2025/11/27 04:55
EBCV 270455Z AUTO 19009KT 9999 OVC045/// 05/02 Q1020 BLU
