2025/11/29 05:55
EBCV 290555Z AUTO 18008KT 9999 OVC008/// 08/07 Q1010 GRN
