2025/11/20 01:41
EBCV 200141Z AUTO 32012KT 9999 -RA BKN024/// BKN110/// 03/01 Q1008 WHT
