2025/11/21 06:55
EBCV 210655Z AUTO 05006KT 9999 OVC004/// 02/01 Q1019 YLO
