2025/11/29 16:25
EBCV 291625Z AUTO 19013KT 9999 -DZRA BKN017/// OVC110/// 11/09 Q1004 WHT
