2025/11/27 00:55
EBCV 270055Z AUTO 19007KT 5000 BKN160/// 02/01 Q1021 WHT
