2025/11/26 14:25
EBCV 261425Z AUTO VRB02KT 9999 NCD 05/03 Q1021 BLU
