2025/11/29 04:25
EBCV 290425Z AUTO 19009KT 9999 OVC007/// 08/08 Q1011 GRN
