2025/11/30 15:55
EBCV 301555Z AUTO 23005KT 9999 SCT038/// 04/01 Q1015 BLU
