2025/11/22 10:55
EBCV 221055Z AUTO 20010KT 6000 SCT006/// BKN170/// M00/M00 Q1026 YLO
