2025/11/21 18:55
EBCV 211855Z AUTO VRB02KT 4000 BR NCD M01/M02 Q1028 GRN
