2025/12/07 02:55
EBCV 070255Z AUTO 21011KT 9999 BKN015/// OVC046/// 10/08 Q1007 WHT
