2025/11/28 21:25
EBCV 282125Z AUTO 19008KT 9999 FEW038/// 08/07 Q1013 BLU
