2025/11/20 14:25
EBCV 201425Z AUTO 30008KT 9999 -DZ BKN014/// BKN046/// BKN100/// 02/02 Q1011 GRN
