2025/11/19 22:25
EBCV 192225Z AUTO 30007KT 9999 -RA BKN031/// 04/02 Q1005 BLU
