2025/11/26 23:55
EBCV 262355Z AUTO 18007KT 5000 OVC160/// 03/02 Q1022 WHT
