2025/11/29 02:55
EBCV 290255Z AUTO 19008KT 9999 FEW006/// SCT038/// 07/07 Q1011 BLU
