2025/11/28 09:25
EBCV 280925Z AUTO 20011KT 9999 -DZ OVC005/// 08/08 Q1015 YLO
