2025/11/28 10:25
EBCV 281025Z AUTO 19011KT 9000 -DZ BKN006/// BKN094/// 09/08 Q1015 YLO
