2025/11/20 01:55
EBCV 200155Z AUTO 33012KT 9999 -RA SCT023/// BKN120/// 02/01 Q1008 WHT
