2025/11/23 07:55
EBCV 230755Z AUTO 18016KT 9999 OVC012/// 01/M01 Q1009 GRN
