2025/11/28 17:55
EBCV 281755Z AUTO 20008KT 9000 FEW004/// SCT041/// 09/08 Q1014 BLU
