2025/11/29 17:43
EBCV 291743Z AUTO 18011KT 9999 -RA FEW005/// BKN011/// BKN140/// 10/09 Q1003 GRN
