2025/11/24 16:45
EBCV 241645Z AUTO 25006KT 6000 RA FEW005/// BKN150/// 07/06 Q0992 WHT
