2025/11/23 12:55
EBCV 231255Z AUTO 18014KT 9999 BKN008/// OVC100/// 02/01 Q1002 GRN
