2025/11/29 02:25
EBCV 290225Z AUTO 19007KT 9999 FEW005/// BKN037/// BKN063/// 07/07 Q1012 BLU
