2025/11/30 18:55
EBCV 301855Z AUTO 22006KT 9999 NCD 02/00 Q1017 BLU
