2025/11/20 03:25
EBCV 200325Z AUTO VRB01KT 9999 -DZ OVC006/// 02/02 Q1008 YLO
