2025/11/21 02:51
EBCV 210251Z AUTO 28003KT 3600 -RASN OVC003/// 01/01 Q1015 YLO
