2025/11/21 23:25
EBCV 212325Z AUTO 19005KT 0100 FZFG OVC001/// M02/M02 Q1029 RED
