2025/11/24 07:17
EBCV 240717Z AUTO 20009KT 7000 -RA OVC056/// 06/05 Q0995 WHT
