2025/11/21 21:55
EBCV 212155Z AUTO 20003KT 1800 BR NCD M02/M02 Q1028 YLO
