2025/11/22 00:55
EBCV 220055Z AUTO VRB02KT 0100 FZFG OVC001/// M02/M02 Q1028 RED
