2025/11/20 16:55
EBCV 201655Z AUTO 25006KT 9999 BKN150/// 02/01 Q1012 BLU
