2025/11/26 06:55
EBCV 260655Z AUTO 02008KT 9999 BKN007/// 04/03 Q1019 GRN
