2025/11/25 03:48
EBCV 250348Z AUTO VRB02KT 1600 BR OVC002/// 04/04 Q0999 AMB
