2025/11/29 08:25
EBCV 290825Z AUTO 18008KT 9999 BKN010/// BKN100/// 08/07 Q1009 GRN
