2025/11/23 16:15
EBCV 231615Z AUTO 20015KT 9999 OVC006/// 04/03 Q1000 YLO
