2025/11/25 00:54
EBCV 250054Z AUTO 33005KT 7000 BKN033/// OVC092/// 06/05 Q0997 WHT
