2025/11/26 21:25
EBCV 262125Z AUTO 18006KT 5000 BKN041/// 02/02 Q1022 WHT
