2025/11/24 11:22
EBCV 241122Z AUTO 19009KT 9999 SCT020/// OVC082/// 06/05 Q0993 WHT
