2025/11/29 04:55
EBCV 290455Z AUTO 19009KT 9999 OVC006/// 08/08 Q1011 YLO
