2025/11/30 11:55
EBCV 301155Z AUTO 27011KT 9999 FEW028/// 06/01 Q1013 BLU
