2025/11/30 21:25
EBCV 302125Z AUTO 21006KT 9999 NCD 02/01 Q1018 BLU
