2025/11/25 23:25
EBCV 252325Z AUTO 28005KT 9999 SCT030/// BKN042/// BKN087/// 03/02 Q1015 BLU
