2025/11/30 04:25
EBCV 300425Z AUTO 22009KT 9999 FEW028/// BKN040/// BKN190/// 06/05 Q1008 BLU
