2025/12/06 08:25
EBCV 060825Z AUTO 20014KT 9999 SCT013/// BKN046/// 09/08 Q1001 GRN
