2025/11/29 19:55
EBCV 291955Z AUTO 25008KT 9999 -RA FEW009/// OVC150/// 09/06 Q1004 BLU
