2025/11/28 21:55
EBCV 282155Z AUTO 20008KT 8000 SCT003/// BKN120/// 08/08 Q1013 YLO
