2025/12/01 02:55
EBCV 010255Z AUTO 18009KT 9999 NCD 02/01 Q1016 BLU
