2025/11/24 23:55
EBCV 242355Z AUTO 33005KT 7000 BKN005/// BKN039/// BKN100/// 06/05 Q0997 YLO
