2025/11/30 19:55
EBCV 301955Z AUTO 20005KT 9999 NCD 01/00 Q1017 BLU
