2025/11/23 04:54
EBCV 230454Z AUTO 18017G28KT 9999 -FZDZ SCT011/// BKN030/// BKN052/// 01/M01 Q1011 GRN
