2025/11/24 09:25
EBCV 240925Z AUTO 21009KT 9999 -RA FEW008/// OVC100/// 06/05 Q0994 BLU
