2025/12/07 09:25
EBCV 070925Z AUTO 18007KT 9999 -DZ BKN010/// OVC100/// 10/09 Q1007 GRN
