2025/11/26 16:25
EBCV 261625Z AUTO VRB02KT 9000 BKN013/// 03/02 Q1022 GRN
