2025/11/29 00:25
EBCV 290025Z AUTO 20010KT 8000 BKN003/// OVC036/// 08/08 Q1013 YLO
