2025/11/21 23:55
EBCV 212355Z AUTO 20004KT 0100 FZFG OVC001/// M02/M02 Q1028 RED
