2025/11/20 09:55
EBCV 200955Z AUTO 27006KT 9999 SCT004/// BKN092/// 01/01 Q1010 YLO
