2025/11/23 21:25
EBCV 232125Z AUTO 21011KT 9000 OVC003/// 06/06 Q0999 YLO
