2025/11/28 19:25
EBCV 281925Z AUTO 19006KT 9999 NCD 07/07 Q1013 BLU
