2025/11/21 03:55
EBCV 210355Z AUTO 10003KT 8000 BKN003/// BKN150/// 01/01 Q1016 YLO
