2025/11/29 20:55
EBCV 292055Z AUTO 23006KT 9999 -RA BKN041/// OVC110/// 09/07 Q1005 BLU
