2025/11/23 18:55
EBCV 231855Z AUTO 21010KT 9999 OVC004/// 05/04 Q0999 YLO
