2025/11/27 13:55
EBCV 271355Z AUTO 20012KT 9999 OVC005/// 06/05 Q1018 YLO
