2025/11/23 03:53
EBCV 230353Z AUTO 19012KT 8000 -SN BKN011/// BKN150/// M00/M01 Q1013 GRN
