2025/11/25 01:21
EBCV 250121Z AUTO 32006KT 9000 FEW025/// BKN045/// 05/05 Q0997 BLU
