2025/11/21 20:45
EBCV 212045Z AUTO VRB02KT 0350 FZFG NCD M01/M02 Q1028 RED
