2025/11/21 01:55
EBCV 210155Z AUTO 25004KT 5000 OVC003/// 01/01 Q1015 YLO
