2025/11/26 14:55
EBCV 261455Z AUTO VRB02KT 9999 SCT014/// 06/03 Q1021 GRN
