2025/11/24 20:55
EBCV 242055Z AUTO VRB01KT 9999 -RA BKN008/// OVC120/// 06/05 Q0994 GRN
