2025/11/23 12:25
EBCV 231225Z AUTO 18016KT 9999 -DZRA SCT009/// OVC096/// 02/01 Q1003 GRN
