2025/12/06 03:25
EBCV 060325Z AUTO 18016KT 9000 -RA OVC009/// 06/05 Q1000 GRN
