2025/11/27 12:25
EBCV 271225Z AUTO 21013KT 9999 BKN006/// BKN100/// 06/05 Q1019 YLO
