2025/11/28 16:55
EBCV 281655Z AUTO 21009KT 7000 OVC003/// 09/09 Q1013 YLO
