2025/11/25 07:09
EBCV 250709Z AUTO VRB02KT 3300 SCT046/// 03/03 Q1002 YLO
