2025/11/29 15:25
EBCV 291525Z AUTO 20010KT 9999 -DZ OVC015/// 10/09 Q1004 WHT
