2025/11/21 18:37
EBCV 211837Z AUTO VRB01KT 3600 BR NCD M00/M01 Q1028 YLO
