2025/11/26 20:25
EBCV 262025Z AUTO 18004KT 5000 FEW039/// 02/01 Q1023 WHT
