2025/12/06 20:25
EBCV 062025Z AUTO 22015KT 9999 SCT027/// BKN065/// OVC093/// 10/07 Q1005 BLU
