2025/11/21 01:25
EBCV 210125Z AUTO 23004KT 9999 OVC004/// 01/01 Q1015 YLO
