2025/11/27 12:55
EBCV 271255Z AUTO 20011KT 9999 BKN006/// OVC100/// 06/05 Q1018 YLO
