2025/11/24 22:52
EBCV 242252Z AUTO 33005KT 4500 -RA FEW005/// BKN130/// 06/05 Q0996 GRN
