2025/11/21 13:55
EBCV 211355Z AUTO 04006KT 9999 FEW016/// 04/01 Q1025 BLU
