2025/11/30 13:25
EBCV 301325Z AUTO 27011KT 9999 SCT032/// 07/00 Q1014 BLU
