2025/11/23 23:25
EBCV 232325Z AUTO 21010KT 9999 SCT005/// BKN048/// 05/05 Q0998 YLO
