2025/11/23 01:33
EBCV 230133Z AUTO 18012KT 3500 -SN SCT034/// BKN120/// M01/M04 Q1015 YLO
