2025/11/22 21:55
EBCV 222155Z AUTO 18010KT 9999 SCT160/// BKN190/// M01/M06 Q1017 BLU
