2025/11/21 17:33
EBCV 211733Z AUTO VRB01KT 7000 NCD 01/M00 Q1027 WHT
