2025/12/07 16:55
EBCV 071655Z AUTO 22017KT 9999 BKN008/// 14/13 Q1003 GRN
