2025/11/23 23:55
EBCV 232355Z AUTO 22008KT 9999 BKN042/// 05/05 Q0998 BLU
