2025/11/21 22:47
EBCV 212247Z AUTO 18004KT 0600 BR NCD M02/M02 Q1028 RED
