2025/11/22 07:55
EBCV 220755Z AUTO 19005KT 4600 BR NCD M02/M02 Q1027 GRN
