2025/11/29 12:25
EBCV 291225Z AUTO 19013KT 9999 BKN012/// BKN039/// 10/09 Q1006 GRN
