2025/11/21 21:41
EBCV 212141Z AUTO 20003KT 1500 BR NCD M02/M02 Q1028 AMB
