2025/11/21 22:55
EBCV 212255Z AUTO 19004KT 0150 FZFG OVC002/// M03/M03 Q1028 RED
