2025/11/26 16:55
EBCV 261655Z AUTO 19003KT 5000 FEW013/// 02/02 Q1022 WHT
