2025/11/23 13:25
EBCV 231325Z AUTO 18014KT 9999 -DZRA BKN008/// OVC100/// 02/01 Q1001 GRN
