2025/11/25 02:23
EBCV 250223Z AUTO 30006KT 2000 BR SCT001/// 04/04 Q0998 RED
