2025/11/22 13:25
EBCV 221325Z AUTO 20011KT 9999 NCD 02/M01 Q1024 BLU
