2025/11/28 12:25
EBCV 281225Z AUTO 20010KT 6000 DZ BKN004/// BKN110/// 09/09 Q1014 YLO
