2025/11/23 20:25
EBCV 232025Z AUTO 21013KT 6000 BKN003/// 05/05 Q0999 YLO
