2025/11/26 17:25
EBCV 261725Z AUTO 18003KT 7000 FEW012/// 02/02 Q1022 WHT
