2025/11/28 20:25
EBCV 282025Z AUTO 20009KT 2100 BR BKN002/// BKN043/// 08/08 Q1014 AMB
