2025/11/23 07:25
EBCV 230725Z AUTO 18014KT 9999 OVC012/// 01/M01 Q1009 GRN
