2025/11/23 15:25
EBCV 231525Z AUTO 20018KT 9999 BKN008/// OVC110/// 04/03 Q1000 GRN
