2025/11/25 19:25
EBCV 251925Z AUTO 31005KT 9999 FEW033/// 04/02 Q1013 BLU
