2025/11/23 11:25
EBCV 231125Z AUTO 18014KT 9999 -DZ BKN009/// BKN095/// 01/00 Q1004 GRN
