2025/11/21 14:55
EBCV 211455Z AUTO 02005KT 9999 NCD 04/01 Q1025 BLU
