2025/11/20 18:25
EBCV 201825Z AUTO 23005KT 9999 BKN041/// 01/00 Q1013 BLU
