2025/11/19 23:55
EBCV 192355Z AUTO 27007KT 9999 SCT110/// 03/01 Q1006 BLU
