2025/11/27 10:25
EBCV 271025Z AUTO 20015KT 4500 DZ BKN005/// BKN140/// 05/05 Q1019 YLO
