2025/11/20 23:55
EBCV 202355Z AUTO 23005KT 6000 BKN003/// 01/00 Q1015 YLO
