2025/11/26 18:55
EBCV 261855Z AUTO 20003KT 6000 FEW010/// OVC044/// 02/02 Q1023 WHT
