2025/11/30 12:25
EBCV 301225Z AUTO 27010KT 9999 FEW036/// 07/01 Q1013 BLU
