2025/11/30 21:55
EBCV 302155Z AUTO 20006KT 9999 NCD 01/01 Q1017 BLU
