2025/11/26 19:55
EBCV 261955Z AUTO 18003KT 5000 NCD 02/01 Q1022 WHT
