2025/11/30 17:55
EBCV 301755Z AUTO 20006KT 9999 FEW033/// 02/00 Q1016 BLU
