2025/11/23 01:55
EBCV 230155Z AUTO 18011KT 1900 -SN OVC150/// M01/M02 Q1014 YLO
