2025/11/20 19:55
EBCV 201955Z AUTO 23005KT 9999 -RA SCT012/// BKN021/// BKN150/// 01/00 Q1013 GRN
