2025/11/22 12:44
EBCV 221244Z AUTO 20008KT 9999 FEW007/// 01/M00 Q1024 BLU
