2025/11/22 11:43
EBCV 221143Z AUTO 20009KT 8000 FEW006/// SCT170/// 00/00 Q1025 BLU
