2025/11/27 09:55
EBCV 270955Z AUTO 20016KT 4900 DZ BKN005/// BKN130/// 05/05 Q1019 YLO
