2025/11/28 16:25
EBCV 281625Z AUTO 20008KT 9000 -DZ OVC004/// 09/09 Q1013 YLO
