2025/11/30 05:25
EBCV 300525Z AUTO 23006KT 9999 FEW046/// BKN190/// 06/05 Q1008 BLU
