2025/11/21 09:55
EBCV 210955Z AUTO 02008KT 6000 BKN007/// 03/02 Q1023 GRN
