2025/11/26 01:55
EBCV 260155Z AUTO 30005KT 9999 OVC028/// 04/03 Q1016 BLU
