2025/12/06 02:55
EBCV 060255Z AUTO 18015G26KT 9999 OVC010/// 06/05 Q1001 GRN
