2025/11/30 03:55
EBCV 300355Z AUTO 21007KT 9999 FEW041/// BKN180/// 06/05 Q1008 BLU
