2025/11/21 07:25
EBCV 210725Z AUTO 03005KT 9999 OVC010/// 02/01 Q1020 GRN
