2025/11/28 20:12
EBCV 282012Z AUTO 20008KT 6000 SCT002/// BKN043/// 08/08 Q1014 AMB
