2025/11/23 22:21
EBCV 232221Z AUTO 21009KT 9999 FEW005/// SCT033/// 06/05 Q0998 BLU
