2025/11/22 12:04
EBCV 221204Z AUTO 20009KT 8000 SCT007/// 01/01 Q1025 GRN
