2025/11/20 20:25
EBCV 202025Z AUTO 24005KT 9999 FEW012/// BKN028/// BKN110/// 01/00 Q1014 BLU
