2025/11/23 14:25
EBCV 231425Z AUTO 20014KT 9999 -DZ BKN006/// 03/02 Q1001 YLO
