2025/11/20 20:55
EBCV 202055Z AUTO 26005KT 9999 -RA OVC022/// 01/00 Q1014 WHT
