2025/11/26 08:25
EBCV 260825Z AUTO 36004KT 9000 BKN008/// OVC100/// 04/03 Q1020 GRN
