2025/11/23 06:25
EBCV 230625Z AUTO 19017KT 9999 OVC014/// 01/M01 Q1010 GRN
