2025/11/22 09:25
EBCV 220925Z AUTO 18008KT 4800 NCD M01/M02 Q1027 GRN
