2025/11/25 21:55
EBCV 252155Z AUTO 28005KT 9999 BKN035/// BKN068/// 03/02 Q1015 BLU
