2025/11/24 23:05
EBCV 242305Z AUTO 33005KT 4700 -DZRA FEW004/// 06/05 Q0996 GRN
