2025/11/25 01:37
EBCV 250137Z AUTO 32006KT 7000 FEW024/// SCT045/// 05/04 Q0998 WHT
