2025/11/29 00:55
EBCV 290055Z AUTO 21009KT 6000 OVC002/// 08/08 Q1012 AMB
