2025/12/07 15:55
EBCV 071555Z AUTO 20014KT 9999 -RA SCT007/// SCT056/// BKN140/// 13/12 Q1003 GRN
