2025/11/20 08:25
EBCV 200825Z AUTO 26005KT 9999 /// 01/00 Q1009 BLU
