2025/11/29 03:55
EBCV 290355Z AUTO 19006KT 9999 BKN007/// BKN120/// 07/07 Q1011 GRN
