2025/11/21 04:55
EBCV 210455Z AUTO VRB02KT 9000 -DZ OVC004/// 01/01 Q1017 YLO
