2025/11/23 16:55
EBCV 231655Z AUTO 21014KT 9999 OVC005/// 04/03 Q1000 YLO
