2025/11/30 18:25
EBCV 301825Z AUTO 21006KT 9999 NCD 02/00 Q1017 BLU
