2025/12/06 17:25
EBCV 061725Z AUTO 22014KT 9999 SCT036/// BKN088/// 10/07 Q1004 BLU
