2025/11/21 13:24
EBCV 211324Z AUTO 02007KT 9999 SCT017/// 05/02 Q1024 WHT
