2025/11/27 02:55
EBCV 270255Z AUTO 19008KT 9999 OVC073/// 03/02 Q1021 BLU
