2025/11/23 06:10
EBCV 230610Z AUTO 18017KT 9999 OVC014/// 01/M01 Q1010 GRN
