2025/11/21 12:55
EBCV 211255Z AUTO 03006KT 9999 BKN015/// 04/01 Q1024 WHT
