2025/11/20 00:25
EBCV 200025Z AUTO 30011KT 9999 SCT041/// BKN120/// 03/02 Q1006 BLU
