2025/11/24 20:38
EBCV 242038Z AUTO VRB02KT 9999 -RA SCT011/// SCT028/// OVC120/// 06/05 Q0994 GRN
