2025/11/27 03:25
EBCV 270325Z AUTO 19008KT 9999 FEW054/// OVC066/// 03/02 Q1020 BLU
