2025/11/26 07:55
EBCV 260755Z AUTO 02005KT 9000 OVC007/// 04/03 Q1020 GRN
