2025/11/24 22:18
EBCV 242218Z AUTO 30005KT 5000 -RA BKN006/// BKN140/// 06/05 Q0995 YLO
