2025/11/27 08:25
EBCV 270825Z AUTO 20014KT 9999 -DZ FEW011/// SCT017/// OVC100/// 05/04 Q1019 WHT
