2025/11/23 16:25
EBCV 231625Z AUTO 21015KT 9999 OVC006/// 04/03 Q1000 YLO
