2025/11/21 02:55
EBCV 210255Z AUTO VRB02KT 4400 -RA OVC003/// 01/01 Q1015 YLO
