2025/11/19 23:12
EBCV 192312Z AUTO 31014KT 9999 -RA SCT023/// BKN120/// 03/02 Q1006 WHT
