2025/11/26 19:25
EBCV 261925Z AUTO 18003KT 7000 BKN049/// 02/02 Q1023 WHT
