2025/11/30 15:25
EBCV 301525Z AUTO 25006KT 9999 FEW037/// 06/01 Q1015 BLU
