2025/11/24 16:17
EBCV 241617Z AUTO 18006KT 7000 RA FEW016/// BKN150/// 07/06 Q0992 WHT
