2025/11/24 04:25
EBCV 240425Z AUTO 20010KT 9999 BKN083/// 05/04 Q0995 BLU
