2025/11/26 20:55
EBCV 262055Z AUTO 18005KT 5000 BKN040/// 02/01 Q1023 WHT
