2025/11/27 05:25
EBCV 270525Z AUTO 20012KT 9999 -RA SCT042/// OVC110/// 05/02 Q1020 BLU
