2025/11/22 12:55
EBCV 221255Z AUTO 20010KT 9999 FEW009/// 02/M01 Q1024 BLU
