2025/11/23 03:25
EBCV 230325Z AUTO 19014KT 6000 -SN SCT014/// OVC120/// M00/M01 Q1013 GRN
