2025/11/24 14:34
EBCV 241434Z AUTO 19008KT 7000 RA FEW017/// OVC033/// 07/06 Q0992 WHT
