2025/11/29 07:25
EBCV 290725Z AUTO 18009KT 9999 BKN008/// BKN110/// 08/07 Q1009 GRN
