2025/11/28 23:25
EBCV 282325Z AUTO 20008KT 9000 FEW003/// BKN031/// BKN110/// 08/08 Q1013 BLU
