2025/11/29 16:55
EBCV 291655Z AUTO 19013KT 9999 -DZRA BKN016/// OVC120/// 11/09 Q1004 WHT
