2025/11/21 21:12
EBCV 212112Z AUTO VRB02KT 1500 BR NCD M02/M02 Q1028 AMB
