2025/11/21 04:25
EBCV 210425Z AUTO VRB01KT 9000 -DZRA BKN003/// 01/01 Q1017 YLO
