2025/11/28 14:25
EBCV 281425Z AUTO 20012KT 9999 BKN008/// OVC100/// 09/08 Q1013 GRN
