2025/11/23 19:55
EBCV 231955Z AUTO 21012KT 9000 BKN004/// BKN120/// 05/05 Q0999 YLO
