2025/11/23 06:55
EBCV 230655Z AUTO 19017KT 9999 OVC013/// 01/M01 Q1010 GRN
