2025/11/20 04:25
EBCV 200425Z AUTO 26007KT 9999 OVC006/// 02/01 Q1008 YLO
