2025/11/29 01:25
EBCV 290125Z AUTO 20009KT 8000 OVC002/// 08/08 Q1012 AMB
