2025/11/24 07:45
EBCV 240745Z AUTO 19009KT 9000 -RA BKN140/// 06/05 Q0995 BLU
