2025/11/27 02:25
EBCV 270225Z AUTO 19007KT 9999 SCT077/// BKN140/// 03/02 Q1021 BLU
