2025/11/25 22:25
EBCV 252225Z AUTO 29004KT 9999 SCT046/// 03/02 Q1015 BLU
