2025/11/20 03:55
EBCV 200355Z AUTO 25006KT 9999 OVC006/// 02/01 Q1008 YLO
