2025/11/30 19:25
EBCV 301925Z AUTO 21006KT 9999 NCD 01/00 Q1017 BLU
