2025/11/22 09:03
EBCV 220903Z AUTO 18006KT 4900 FEW150/// M02/M02 Q1027 GRN
