2025/11/25 08:15
EBCV 250815Z AUTO VRB01KT 2600 BR FEW010/// BKN035/// 03/03 Q1003 YLO
