2025/11/25 07:51
EBCV 250751Z AUTO VRB02KT 3200 BR SCT039/// 03/03 Q1002 YLO
