2025/11/21 17:55
EBCV 211755Z AUTO VRB02KT 5000 NCD 00/M01 Q1027 WHT
