2025/12/02 02:25
EBCV 020225Z AUTO 18019G32KT 9999 BKN027/// OVC038/// 07/00 Q1005 BLU
