2025/11/27 08:55
EBCV 270855Z AUTO 21012KT 5000 DZ BKN008/// BKN110/// 05/04 Q1019 GRN
