2025/11/30 14:25
EBCV 301425Z AUTO 26010KT 9999 FEW037/// 07/00 Q1014 BLU
