2025/11/25 18:55
EBCV 251855Z AUTO 32003KT 9999 SCT037/// SCT059/// 04/03 Q1013 BLU
