2025/12/06 13:55
EBCV 061355Z AUTO 22014KT 9999 BKN026/// 11/08 Q1002 BLU
