2025/11/27 00:25
EBCV 270025Z AUTO 19007KT 6000 OVC160/// 03/02 Q1022 WHT
