2025/11/21 03:25
EBCV 210325Z AUTO VRB01KT 5000 DZ OVC003/// 01/01 Q1016 YLO
