2025/11/28 22:55
EBCV 282255Z AUTO 20006KT 7000 BKN002/// 08/08 Q1013 AMB
