2025/11/22 10:22
EBCV 221022Z AUTO 21008KT 4900 FEW170/// M01/M01 Q1026 GRN
