2025/11/23 11:55
EBCV 231155Z AUTO 18016G26KT 9999 +DZRA BKN009/// OVC100/// 01/00 Q1003 GRN
