2025/11/22 00:25
EBCV 220025Z AUTO VRB01KT 0100 FZFG OVC001/// M02/M02 Q1028 RED
