2025/11/20 22:55
EBCV 202255Z AUTO 23005KT 8000 SCT004/// BKN120/// 01/00 Q1014 YLO
