2025/11/30 23:55
EBCV 302355Z AUTO 21006KT 9999 NCD 02/01 Q1018 BLU
