2025/11/26 22:34
EBCV 262234Z AUTO 20005KT 3600 BR BKN200/// 02/01 Q1023 YLO
