2025/11/26 17:55
EBCV 261755Z AUTO 19003KT 5000 FEW012/// BKN053/// 02/01 Q1022 WHT
