2025/11/30 04:55
EBCV 300455Z AUTO 22008KT 9999 BKN031/// 06/05 Q1008 BLU
