2025/11/24 08:19
EBCV 240819Z AUTO 21009KT 9999 -RA FEW009/// OVC100/// 06/05 Q0994 BLU
