2025/12/07 00:25
EBCV 070025Z AUTO 21012KT 9999 FEW005/// BKN040/// 09/07 Q1007 BLU
