2025/11/20 15:25
EBCV 201525Z AUTO 25004KT 9999 OVC022/// 02/02 Q1012 WHT
