2025/11/29 06:55
EBCV 290655Z AUTO 19009KT 9999 BKN008/// BKN140/// 08/07 Q1010 GRN
