2025/11/20 16:25
EBCV 201625Z AUTO 23005KT 9999 OVC120/// 01/01 Q1012 BLU
