2025/11/24 10:53
EBCV 241053Z AUTO 22011KT 7000 RA FEW051/// OVC100/// 05/04 Q0994 WHT
