2025/11/28 20:55
EBCV 282055Z AUTO 20009KT 9999 FEW002/// BKN039/// BKN052/// 08/08 Q1013 BLU
