2025/12/07 06:55
EBCV 070655Z AUTO 20010KT 8000 -DZ BKN010/// BKN032/// BKN120/// 10/08 Q1007 GRN
