2025/11/29 18:25
EBCV 291825Z AUTO 19012KT 9999 -RA BKN012/// BKN130/// 11/09 Q1003 GRN
