2025/11/25 03:55
EBCV 250355Z AUTO VRB01KT 0650 BR OVC002/// 04/04 Q0999 RED
