2025/12/02 04:25
EBCV 020425Z AUTO 18014KT 9999 FEW070/// OVC130/// 06/03 Q1005 BLU
