2025/11/28 13:25
EBCV 281325Z AUTO 20010KT 9999 -RA BKN004/// BKN100/// 09/09 Q1013 YLO
