2025/11/29 15:55
EBCV 291555Z AUTO 19011KT 9999 -DZRA FEW013/// SCT072/// BKN130/// 10/09 Q1004 BLU
