2025/11/24 10:10
EBCV 241010Z AUTO 21010KT 7000 RA OVC060/// 06/05 Q0994 WHT
