2025/11/21 19:25
EBCV 211925Z AUTO 26003KT 3200 BR NCD M01/M01 Q1028 YLO
