2025/11/23 22:55
EBCV 232255Z AUTO 21010KT 9999 BKN005/// 05/05 Q0998 YLO
