2025/11/22 08:53
EBCV 220853Z AUTO 18006KT 4900 NCD M02/M02 Q1027 GRN
