2025/11/30 17:25
EBCV 301725Z AUTO 21005KT 9999 BKN034/// 03/01 Q1016 BLU
