2025/11/30 20:25
EBCV 302025Z AUTO 19005KT 9999 NCD 01/00 Q1017 BLU
