2025/11/24 02:55
EBCV 240255Z AUTO 20009KT 9999 NCD 05/04 Q0996 BLU
