2025/11/20 21:55
EBCV 202155Z AUTO 25006KT 9999 -RA FEW061/// OVC130/// 01/01 Q1014 BLU
