2025/11/27 07:55
EBCV 270755Z AUTO 20014KT 9999 -DZ FEW017/// OVC120/// 05/03 Q1019 BLU
