2025/11/27 01:55
EBCV 270155Z AUTO 18007KT 8000 SCT140/// 02/02 Q1021 BLU
