2025/11/23 14:55
EBCV 231455Z AUTO 21014KT 9999 BKN007/// OVC110/// 03/02 Q1000 GRN
