2025/11/23 21:21
EBCV 232121Z AUTO 21011KT 7000 OVC003/// 06/06 Q0999 YLO
