2025/12/01 12:55
EBCV 011255Z AUTO 18014KT 9999 OVC048/// 07/04 Q1011 BLU
