2025/11/28 18:25
EBCV 281825Z AUTO 20008KT 9999 NCD 08/08 Q1014 BLU
