2025/11/27 01:25
EBCV 270125Z AUTO 19007KT 6000 NCD 02/01 Q1021 WHT
