2025/11/27 09:25
EBCV 270925Z AUTO 20015KT 5000 DZ BKN006/// BKN130/// 05/04 Q1019 YLO
