2025/11/24 21:33
EBCV 242133Z AUTO 31003KT 9999 -RA BKN004/// 06/06 Q0994 YLO
