2025/11/30 02:25
EBCV 300225Z AUTO 20008KT 9999 FEW042/// BKN180/// 06/06 Q1007 BLU
