2025/11/24 23:33
EBCV 242333Z AUTO 33006KT 9999 BKN006/// OVC025/// 06/05 Q0996 YLO
