2025/11/25 04:55
EBCV 250455Z AUTO 22004KT 0250 FG OVC002/// 03/03 Q1000 RED
