2025/11/21 09:25
EBCV 210925Z AUTO 03007KT 6000 BKN005/// BKN017/// BKN036/// 03/02 Q1022 YLO
