2025/11/26 21:55
EBCV 262155Z AUTO 19006KT 4900 FEW045/// BKN210/// 02/02 Q1023 GRN
