2025/11/24 12:55
EBCV 241255Z AUTO 19006KT 9999 OVC019/// 08/06 Q0992 WHT
