2025/11/20 19:25
EBCV 201925Z AUTO 25009KT 9999 FEW037/// OVC069/// 02/00 Q1013 BLU
