2025/11/26 09:25
EBCV 260925Z AUTO VRB02KT 9999 BKN007/// OVC100/// 04/03 Q1021 GRN
