2025/12/06 00:25
EBCV 060025Z AUTO 17015G26KT 7000 -RA FEW100/// OVC140/// 06/04 Q1002 WHT
