2025/11/28 22:33
EBCV 282233Z AUTO 21007KT 5000 BKN002/// 08/08 Q1013 AMB
