2025/11/20 02:37
EBCV 200237Z AUTO 25004KT 9999 SCT024/// BKN110/// 02/01 Q1008 WHT
