2025/11/23 00:47
EBCV 230047Z AUTO 18011KT 9999 -SN OVC058/// M01/M06 Q1015 BLU
