2025/11/27 13:25
EBCV 271325Z AUTO 20012KT 9999 BKN006/// OVC100/// 06/05 Q1018 YLO
