2025/11/27 15:25
EBCV 271525Z AUTO 20011KT 9999 OVC006/// 06/06 Q1018 YLO
