2025/12/06 08:55
EBCV 060855Z AUTO 20015KT 9999 BKN014/// OVC096/// 10/08 Q1001 GRN
