2025/11/21 16:25
EBCV 211625Z AUTO VRB01KT 9999 NCD 01/00 Q1026 BLU
